start=new Date('2023-01-25T00:00:00.000Z').valueOf();
sats=[{"COUNTRY_CODE":"US","REV_AT_EPOCH":"1963","LAUNCH_DATE":"2022-09-24","OBJECT_NAME":"STARLINK-5050","MEAN_MOTION":"15.49873442","ECCENTRICITY":"0.00016690","BSTAR":"0.00064073000000","TLE_LINE1":"1 53890U 22119E   23024.91667824  .00036066  00000-0  64073-3 0  9998","PERIAPSIS":"415.964","REF_FRAME":"TEME","APOAPSIS":"418.232","CLASSIFICATION_TYPE":"U","TLE_LINE2":"2 53890  53.2125   8.9833 0001669  88.1939 223.7155 15.49873442 19637","MEAN_MOTION_DOT":"0.00036066","DECAY_DATE":null,"RCS_SIZE":"LARGE","OBJECT_ID":"2022-119E","TIME_SYSTEM":"UTC","EPOCH":"2023-01-24T22:00:00.999936","FILE":"3760028","MEAN_MOTION_DDOT":"0.0000000000000","CENTER_NAME":"EARTH","OBJECT_TYPE":"PAYLOAD","PERIOD":"92.911","MEAN_ELEMENT_THEORY":"SGP4","SITE":"AFETR","ARG_OF_PERICENTER":"88.1939","INCLINATION":"53.2125","GP_ID":"223638402","EPHEMERIS_TYPE":"0","ELEMENT_SET_NO":"999","NORAD_CAT_ID":"53890","MEAN_ANOMALY":"223.7155","RA_OF_ASC_NODE":"8.9833","SEMIMAJOR_AXIS":"6795.233"},{"INCLINATION":"53.2178","ELEMENT_SET_NO":"999","EPHEMERIS_TYPE":"0","GP_ID":"223632321","NORAD_CAT_ID":"53891","MEAN_ANOMALY":"275.3979","SEMIMAJOR_AXIS":"6917.851","RA_OF_ASC_NODE":"43.2922","EPOCH":"2023-01-24T08:49:10.151040","FILE":"3759718","CENTER_NAME":"EARTH","MEAN_MOTION_DDOT":"0.0000000000000","OBJECT_TYPE":"PAYLOAD","SITE":"AFETR","PERIOD":"95.437","MEAN_ELEMENT_THEORY":"SGP4","ARG_OF_PERICENTER":"84.7124","PERIAPSIS":"539.042","REF_FRAME":"TEME","CLASSIFICATION_TYPE":"U","APOAPSIS":"540.390","TLE_LINE2":"2 53891  53.2178  43.2922 0000974  84.7124 275.3979 15.08849585 19119","MEAN_MOTION_DOT":"0.00000638","OBJECT_ID":"2022-119F","RCS_SIZE":"LARGE","DECAY_DATE":null,"TIME_SYSTEM":"UTC","COUNTRY_CODE":"US","LAUNCH_DATE":"2022-09-24","REV_AT_EPOCH":"1911","MEAN_MOTION":"15.08849585","ECCENTRICITY":"0.00009740","OBJECT_NAME":"STARLINK-5041","BSTAR":"0.00005816000000","TLE_LINE1":"1 53891U 22119F   23024.36747860  .00000638  00000-0  58160-4 0  9994"},{"CLASSIFICATION_TYPE":"U","APOAPSIS":"543.219","REF_FRAME":"TEME","PERIAPSIS":"541.251","TIME_SYSTEM":"UTC","OBJECT_ID":"2022-119G","RCS_SIZE":"LARGE","DECAY_DATE":null,"MEAN_MOTION_DOT":"-0.00000072","TLE_LINE2":"2 53892  53.2211  40.8990 0001422  94.6430 265.4725 15.08025743 19183","MEAN_MOTION":"15.08025743","ECCENTRICITY":"0.00014220","OBJECT_NAME":"STARLINK-5046","LAUNCH_DATE":"2022-09-24","REV_AT_EPOCH":"1918","COUNTRY_CODE":"US","TLE_LINE1":"1 53892U 22119G   23024.77942893 -.00000072  00000-0  13731-4 0  9991","BSTAR":"0.00001373100000","ELEMENT_SET_NO":"999","GP_ID":"223638435","EPHEMERIS_TYPE":"0","INCLINATION":"53.2211","RA_OF_ASC_NODE":"40.8990","SEMIMAJOR_AXIS":"6920.370","MEAN_ANOMALY":"265.4725","NORAD_CAT_ID":"53892","FILE":"3760030","EPOCH":"2023-01-24T18:42:22.659552","ARG_OF_PERICENTER":"94.6430","SITE":"AFETR","MEAN_ELEMENT_THEORY":"SGP4","PERIOD":"95.489","OBJECT_TYPE":"PAYLOAD","CENTER_NAME":"EARTH","MEAN_MOTION_DDOT":"0.0000000000000"},{"CLASSIFICATION_TYPE":"U","APOAPSIS":"540.989","REF_FRAME":"TEME","PERIAPSIS":"538.507","TIME_SYSTEM":"UTC","OBJECT_ID":"2022-119H","RCS_SIZE":"LARGE","DECAY_DATE":null,"MEAN_MOTION_DOT":"-0.00001140","TLE_LINE2":"2 53893  53.2199  41.4413 0001794  86.0699 274.0499 15.08839065 19173","MEAN_MOTION":"15.08839065","ECCENTRICITY":"0.00017940","OBJECT_NAME":"STARLINK-5052","LAUNCH_DATE":"2022-09-24","REV_AT_EPOCH":"1917","COUNTRY_CODE":"US","TLE_LINE1":"1 53893U 22119H   23024.75387455 -.00001140  00000-0 -53531-4 0  9997","BSTAR":"-0.00005353100000","ELEMENT_SET_NO":"999","EPHEMERIS_TYPE":"0","GP_ID":"223638448","INCLINATION":"53.2199","SEMIMAJOR_AXIS":"6917.883","RA_OF_ASC_NODE":"41.4413","NORAD_CAT_ID":"53893","MEAN_ANOMALY":"274.0499","FILE":"3760055","EPOCH":"2023-01-24T18:05:34.761120","ARG_OF_PERICENTER":"86.0699","SITE":"AFETR","PERIOD":"95.438","MEAN_ELEMENT_THEORY":"SGP4","OBJECT_TYPE":"PAYLOAD","CENTER_NAME":"EARTH","MEAN_MOTION_DDOT":"0.0000000000000"},{"NORAD_CAT_ID":"53894","MEAN_ANOMALY":"273.4962","RA_OF_ASC_NODE":"41.4898","SEMIMAJOR_AXIS":"6917.886","INCLINATION":"53.2201","ELEMENT_SET_NO":"999","GP_ID":"223638440","EPHEMERIS_TYPE":"0","OBJECT_TYPE":"PAYLOAD","CENTER_NAME":"EARTH","MEAN_MOTION_DDOT":"0.0000000000000","ARG_OF_PERICENTER":"86.6210","SITE":"AFETR","PERIOD":"95.438","MEAN_ELEMENT_THEORY":"SGP4","EPOCH":"2023-01-24T18:16:11.632800","FILE":"3760055","MEAN_MOTION_DOT":"0.00000236","TLE_LINE2":"2 53894  53.2201  41.4898 0001569  86.6210 273.4962 15.08838204 19172","TIME_SYSTEM":"UTC","OBJECT_ID":"2022-119J","RCS_SIZE":"LARGE","DECAY_DATE":null,"PERIAPSIS":"538.665","CLASSIFICATION_TYPE":"U","APOAPSIS":"540.836","REF_FRAME":"TEME","BSTAR":"0.00003293000000","TLE_LINE1":"1 53894U 22119J   23024.76124575  .00000236  00000-0  32930-4 0  9994","COUNTRY_CODE":"US","MEAN_MOTION":"15.08838204","ECCENTRICITY":"0.00015690","OBJECT_NAME":"STARLINK-5043","LAUNCH_DATE":"2022-09-24","REV_AT_EPOCH":"1917"},{"COUNTRY_CODE":"US","OBJECT_NAME":"STARLINK-5032","MEAN_MOTION":"15.08846048","ECCENTRICITY":"0.00013290","REV_AT_EPOCH":"1910","LAUNCH_DATE":"2022-09-24","BSTAR":"-0.00003414200000","TLE_LINE1":"1 53895U 22119K   23024.28650385 -.00000831  00000-0 -34142-4 0  9995","PERIAPSIS":"538.808","APOAPSIS":"540.646","CLASSIFICATION_TYPE":"U","REF_FRAME":"TEME","MEAN_MOTION_DOT":"-0.00000831","TLE_LINE2":"2 53895  53.2188  43.4997 0001329  97.4274 262.6870 15.08846048 19109","TIME_SYSTEM":"UTC","RCS_SIZE":"LARGE","DECAY_DATE":null,"OBJECT_ID":"2022-119K","EPOCH":"2023-01-24T06:52:33.932640","FILE":"3759723","OBJECT_TYPE":"PAYLOAD","MEAN_MOTION_DDOT":"0.0000000000000","CENTER_NAME":"EARTH","ARG_OF_PERICENTER":"97.4274","MEAN_ELEMENT_THEORY":"SGP4","PERIOD":"95.437","SITE":"AFETR","INCLINATION":"53.2188","GP_ID":"223632365","EPHEMERIS_TYPE":"0","ELEMENT_SET_NO":"999","MEAN_ANOMALY":"262.6870","NORAD_CAT_ID":"53895","RA_OF_ASC_NODE":"43.4997","SEMIMAJOR_AXIS":"6917.862"},{"EPOCH":"2023-01-24T17:49:38.142048","FILE":"3760055","OBJECT_TYPE":"PAYLOAD","CENTER_NAME":"EARTH","MEAN_MOTION_DDOT":"0.0000000000000","ARG_OF_PERICENTER":"86.0188","SITE":"AFETR","MEAN_ELEMENT_THEORY":"SGP4","PERIOD":"95.437","INCLINATION":"53.2195","ELEMENT_SET_NO":"999","GP_ID":"223638445","EPHEMERIS_TYPE":"0","NORAD_CAT_ID":"53896","MEAN_ANOMALY":"274.0905","RA_OF_ASC_NODE":"41.3714","SEMIMAJOR_AXIS":"6917.874","COUNTRY_CODE":"US","ECCENTRICITY":"0.00008760","MEAN_MOTION":"15.08842160","OBJECT_NAME":"STARLINK-5037","LAUNCH_DATE":"2022-09-24","REV_AT_EPOCH":"1917","BSTAR":"-0.00004433600000","TLE_LINE1":"1 53896U 22119L   23024.74280257 -.00000993  00000-0 -44336-4 0  9999","PERIAPSIS":"539.133","CLASSIFICATION_TYPE":"U","APOAPSIS":"540.345","REF_FRAME":"TEME","MEAN_MOTION_DOT":"-0.00000993","TLE_LINE2":"2 53896  53.2195  41.3714 0000876  86.0188 274.0905 15.08842160 19170","TIME_SYSTEM":"UTC","OBJECT_ID":"2022-119L","RCS_SIZE":"LARGE","DECAY_DATE":null},{"TIME_SYSTEM":"UTC","OBJECT_ID":"2022-119M","DECAY_DATE":null,"RCS_SIZE":"LARGE","MEAN_MOTION_DOT":"0.00000660","TLE_LINE2":"2 53897  53.2199  41.4631 0001536  81.4395 278.6771 15.08843675 19170","CLASSIFICATION_TYPE":"U","APOAPSIS":"540.797","REF_FRAME":"TEME","PERIAPSIS":"538.672","TLE_LINE1":"1 53897U 22119M   23024.75756303  .00000660  00000-0  59522-4 0  9993","BSTAR":"0.00005952200000","ECCENTRICITY":"0.00015360","MEAN_MOTION":"15.08843675","OBJECT_NAME":"STARLINK-5035","LAUNCH_DATE":"2022-09-24","REV_AT_EPOCH":"1917","COUNTRY_CODE":"US","RA_OF_ASC_NODE":"41.4631","SEMIMAJOR_AXIS":"6917.869","NORAD_CAT_ID":"53897","MEAN_ANOMALY":"278.6771","ELEMENT_SET_NO":"999","GP_ID":"223638949","EPHEMERIS_TYPE":"0","INCLINATION":"53.2199","ARG_OF_PERICENTER":"81.4395","SITE":"AFETR","PERIOD":"95.437","MEAN_ELEMENT_THEORY":"SGP4","OBJECT_TYPE":"PAYLOAD","CENTER_NAME":"EARTH","MEAN_MOTION_DDOT":"0.0000000000000","FILE":"3760055","EPOCH":"2023-01-24T18:10:53.445792"},{"NORAD_CAT_ID":"53898","MEAN_ANOMALY":"250.0788","RA_OF_ASC_NODE":"42.4898","SEMIMAJOR_AXIS":"6917.859","INCLINATION":"53.2193","EPHEMERIS_TYPE":"0","GP_ID":"223632358","ELEMENT_SET_NO":"999","MEAN_MOTION_DDOT":"0.0000000000000","CENTER_NAME":"EARTH","OBJECT_TYPE":"PAYLOAD","MEAN_ELEMENT_THEORY":"SGP4","PERIOD":"95.437","SITE":"AFETR","ARG_OF_PERICENTER":"110.0412","EPOCH":"2023-01-24T11:12:10.974816","FILE":"3759723","TLE_LINE2":"2 53898  53.2193  42.4898 0001927 110.0412 250.0788 15.08846947 19137","MEAN_MOTION_DOT":"-0.00002542","DECAY_DATE":null,"RCS_SIZE":"LARGE","OBJECT_ID":"2022-119N","TIME_SYSTEM":"UTC","PERIAPSIS":"538.391","REF_FRAME":"TEME","APOAPSIS":"541.057","CLASSIFICATION_TYPE":"U","BSTAR":"-0.00014163000000","TLE_LINE1":"1 53898U 22119N   23024.46679369 -.00002542  00000-0 -14163-3 0  9992","COUNTRY_CODE":"US","REV_AT_EPOCH":"1913","LAUNCH_DATE":"2022-09-24","OBJECT_NAME":"STARLINK-5044","ECCENTRICITY":"0.00019270","MEAN_MOTION":"15.08846947"},{"CLASSIFICATION_TYPE":"U","APOAPSIS":"540.790","REF_FRAME":"TEME","PERIAPSIS":"538.682","TIME_SYSTEM":"UTC","OBJECT_ID":"2022-119P","RCS_SIZE":"LARGE","DECAY_DATE":null,"MEAN_MOTION_DOT":"-0.00003876","TLE_LINE2":"2 53899  53.2178  41.3248 0001524  92.6495 267.4671 15.08843068 19175","ECCENTRICITY":"0.00015240","MEAN_MOTION":"15.08843068","OBJECT_NAME":"STARLINK-5042","LAUNCH_DATE":"2022-09-24","REV_AT_EPOCH":"1917","COUNTRY_CODE":"US","TLE_LINE1":"1 53899U 22119P   23024.73544092 -.00003876  00000-0 -22553-3 0  9990","BSTAR":"-0.00022553000000","ELEMENT_SET_NO":"999","EPHEMERIS_TYPE":"0","GP_ID":"223638957","INCLINATION":"53.2178","SEMIMAJOR_AXIS":"6917.871","RA_OF_ASC_NODE":"41.3248","MEAN_ANOMALY":"267.4671","NORAD_CAT_ID":"53899","FILE":"3760031","EPOCH":"2023-01-24T17:39:02.095488","ARG_OF_PERICENTER":"92.6495","SITE":"AFETR","MEAN_ELEMENT_THEORY":"SGP4","PERIOD":"95.437","OBJECT_TYPE":"PAYLOAD","CENTER_NAME":"EARTH","MEAN_MOTION_DDOT":"0.0000000000000"}];
